{"type":"FeatureCollection","features":[{"type":"Feature","properties":{"City":"Pittsboro"},"geometry":{"type":"Point","coordinates":[-79.167127,35.7445119]},"id":0},{"type":"Feature","properties":{"City":"Greensboro"},"geometry":{"type":"Point","coordinates":[-79.7989884,36.1316]},"id":1},{"type":"Feature","properties":{"City":"Eden"},"geometry":{"type":"Point","coordinates":[-79.7391244,36.4923732]},"id":2},{"type":"Feature","properties":{"City":"Winston-Salem"},"geometry":{"type":"Point","coordinates":[-80.2820094,36.0917829]},"id":3},{"type":"Feature","properties":{"City":"Greensboro"},"geometry":{"type":"Point","coordinates":[-79.9016763,36.0551931]},"id":4},{"type":"Feature","properties":{"City":"Jamestown"},"geometry":{"type":"Point","coordinates":[-79.9202241,36.0398398]},"id":5},{"type":"Feature","properties":{"City":"Greensboro"},"geometry":{"type":"Point","coordinates":[-79.9572649,36.0787171]},"id":6},{"type":"Feature","properties":{"City":"Archdale"},"geometry":{"type":"Point","coordinates":[-79.9558592,35.9039689]},"id":7},{"type":"Feature","properties":{"City":"High Point"},"geometry":{"type":"Point","coordinates":[-79.9837862,35.9247572]},"id":8},{"type":"Feature","properties":{"City":"High Point"},"geometry":{"type":"Point","coordinates":[-80.0351765,35.9379363]}},{"type":"Feature","properties":{"City":"Greensboro"},"geometry":{"type":"Point","coordinates":[-79.8679861,36.0695459]},"id":28},{"type":"Feature","properties":{"City":"Greensboro"},"geometry":{"type":"Point","coordinates":[-79.7746132,36.0891083]},"id":11},{"type":"Feature","properties":{"City":"Walkertown"},"geometry":{"type":"Point","coordinates":[-80.1349734,36.1665064]},"id":12},{"type":"Feature","properties":{"City":"Mebane"},"geometry":{"type":"Point","coordinates":[-79.3097299,36.0660266]},"id":13},{"type":"Feature","properties":{"City":"Burlington"},"geometry":{"type":"Point","coordinates":[-79.5196281,36.0675185]},"id":14},{"type":"Feature","properties":{"City":"Burlington"},"geometry":{"type":"Point","coordinates":[-79.4931833,36.0723096]},"id":15},{"type":"Feature","properties":{"City":"Winston-Salem"},"geometry":{"type":"Point","coordinates":[-80.2593911,36.0602816]},"id":16},{"type":"Feature","properties":{"City":"High Point"},"geometry":{"type":"Point","coordinates":[-80.0217002,35.9796641]}},{"type":"Feature","properties":{"City":"Greensboro"},"geometry":{"type":"Point","coordinates":[-79.7723594,36.0416359]},"id":18},{"type":"Feature","properties":{"City":"Winston-Salem"},"geometry":{"type":"Point","coordinates":[-80.1636104,36.027462]},"id":19},{"type":"Feature","properties":{"City":"Mebane"},"geometry":{"type":"Point","coordinates":[-79.2727635,36.0738393]},"id":20},{"type":"Feature","properties":{"City":"Winston-Salem"},"geometry":{"type":"Point","coordinates":[-80.2829108,36.1516515]},"id":21},{"type":"Feature","properties":{"City":"Whitsett"},"geometry":{"type":"Point","coordinates":[-79.6083398,36.0635056]},"id":22},{"type":"Feature","properties":{"City":"Reidsville"},"geometry":{"type":"Point","coordinates":[-79.6406706,36.326895]},"id":23},{"type":"Feature","properties":{"City":"Kernersville"},"geometry":{"type":"Point","coordinates":[-80.0627591,36.0871935]},"id":24},{"type":"Feature","properties":{"City":"Winston-Salem"},"geometry":{"type":"Point","coordinates":[-80.2669728,35.9951236]},"id":25},{"type":"Feature","properties":{"City":"Kernersville"},"geometry":{"type":"Point","coordinates":[-80.1065057,36.0791232]},"id":26},{"type":"Feature","properties":{"City":"Burlington"},"geometry":{"type":"Point","coordinates":[-79.4067649,36.0947507]},"id":27},{"type":"Feature","properties":{"City":"Burlington"},"geometry":{"type":"Point","coordinates":[-79.5126563,36.080004]},"id":28},{"type":"Feature","properties":{"City":"Greensboro"},"geometry":{"type":"Point","coordinates":[-79.8282798,36.0862038]},"id":29},{"type":"Feature","properties":{"City":"Asheboro"},"geometry":{"type":"Point","coordinates":[-79.8077299,35.7337567]},"id":30},{"type":"Feature","properties":{"City":"Walnut Cove"},"geometry":{"type":"Point","coordinates":[-80.1399508,36.312187]},"id":31},{"type":"Feature","properties":{"City":"King"},"geometry":{"coordinates":[-80.36301503099725,36.26202769400271],"type":"Point"},"id":32},{"type":"Feature","properties":{"City":"Madison"},"geometry":{"coordinates":[-79.96916112364372,36.39636188887212],"type":"Point"},"id":33},{"type":"Feature","properties":{"City":"Mayodan"},"geometry":{"coordinates":[-79.9341307890397,36.417652310384895],"type":"Point"},"id":34},{"type":"Feature","properties":{"City":"Reidsville"},"geometry":{"coordinates":[-79.66408803530933,36.35299727649803],"type":"Point"},"id":35},{"type":"Feature","properties":{"City":"Siler City"},"geometry":{"coordinates":[-79.43841438413298,35.73403535930298],"type":"Point"},"id":36},{"type":"Feature","properties":{"City":"Ramseur"},"geometry":{"coordinates":[-79.6531142203913,35.73793074401543],"type":"Point"},"id":37},{"type":"Feature","properties":{"City":"Asheboro"},"geometry":{"coordinates":[-79.78757826229022,35.69962745803704],"type":"Point"},"id":38},{"type":"Feature","properties":{"City":"Asheboro"},"geometry":{"coordinates":[-79.82636890295427,35.68647493402952],"type":"Point"},"id":39},{"type":"Feature","properties":{"City":"Randleman"},"geometry":{"coordinates":[-79.82305837643229,35.82296933239732],"type":"Point"},"id":40},{"type":"Feature","properties":{"City":"Winston-Salem"},"geometry":{"coordinates":[-80.29761924686892,36.07044809354302],"type":"Point"},"id":41},{"type":"Feature","properties":{"City":"Clemmons"},"geometry":{"coordinates":[-80.38322160012224,36.03102026554701],"type":"Point"},"id":42},{"type":"Feature","properties":{"City":"Winston-Salem"},"geometry":{"coordinates":[-80.33808003299949,36.07374406248023],"type":"Point"},"id":43},{"type":"Feature","properties":{"City":"Winston-Salem"},"geometry":{"coordinates":[-80.23003157852294,36.103341971779855],"type":"Point"},"id":44},{"type":"Feature","properties":{},"geometry":{"coordinates":[-80.31455242011535,36.11729085492112],"type":"Point"}},{"type":"Feature","properties":{"City":"Winston-Salem"},"geometry":{"coordinates":[-80.30130485144862,36.144487788107625],"type":"Point"},"id":46},{"type":"Feature","properties":{"City":"Winston-Salem"},"geometry":{"coordinates":[-80.24352914856138,36.137118701579624],"type":"Point"},"id":47},{"type":"Feature","properties":{"City":"Winston-Salem"},"geometry":{"coordinates":[-80.27749166100747,36.18891442451287],"type":"Point"},"id":48},{"type":"Feature","properties":{"City":"Winston-Salem"},"geometry":{"coordinates":[-80.30225138190778,36.21305942149277],"type":"Point"},"id":49},{"type":"Feature","properties":{"City":"Kernersville"},"geometry":{"coordinates":[-80.08985486328004,36.1113391777984],"type":"Point"},"id":50},{"type":"Feature","properties":{"City":"Greensboro"},"geometry":{"coordinates":[-79.82786365987376,36.10861858004084],"type":"Point"},"id":51},{"type":"Feature","properties":{"City":"Greensboro"},"geometry":{"coordinates":[-79.84346421112303,36.12050683875347],"type":"Point"},"id":52},{"type":"Feature","properties":{"City":"Greensboro"},"geometry":{"coordinates":[-79.883246314554,36.1098168569406],"type":"Point"},"id":53},{"type":"Feature","properties":{},"geometry":{"coordinates":[-79.8879430194014,36.088660852770914],"type":"Point"}},{"type":"Feature","properties":{"City":"Greensboro"},"geometry":{"coordinates":[-79.90600209908311,36.1256329159355],"type":"Point"},"id":55},{"type":"Feature","properties":{"City":"Jamestown"},"geometry":{"coordinates":[-79.89643852582239,36.01438214057454],"type":"Point"},"id":56},{"type":"Feature","properties":{"City":"Greensboro"},"geometry":{"coordinates":[-79.84902834146428,36.03963315597153],"type":"Point"},"id":57},{"type":"Feature","properties":{"City":"Greensboro"},"geometry":{"coordinates":[-79.79126440242958,36.00307598367469],"type":"Point"},"id":58},{"type":"Feature","properties":{"City":"Greensboro"},"geometry":{"coordinates":[-79.75321702117238,36.113396045663336],"type":"Point"},"id":59},{"type":"Feature","properties":{"City":"Whitsett"},"geometry":{"coordinates":[-79.65990448915228,36.05710169145789],"type":"Point"},"id":60},{"type":"Feature","properties":{"City":"Yanceyville"},"geometry":{"coordinates":[-79.34998755627308,36.41731647320229],"type":"Point"},"id":61},{"type":"Feature","properties":{"City":"Thomasville"},"geometry":{"coordinates":[-80.07213076115481,35.86736159246365],"type":"Point"},"id":62},{"type":"Feature","properties":{"City":"High Point"},"geometry":{"coordinates":[-79.96235679277959,36.03619266701692],"type":"Point"},"id":63},{"type":"Feature","properties":{"City":"High Point"},"geometry":{"coordinates":[-80.03735398858906,36.00530513584516],"type":"Point"},"id":64}]}